NORAD_CAT_ID,OBJECT_NAME,OBJECT_TYPE,EPOCH,MEAN_MOTION,ECCENTRICITY,INCLINATION,RA_OF_ASC_NODE,ARG_OF_PERICENTER,MEAN_ANOMALY,BSTAR,MEAN_MOTION_DOT,MEAN_MOTION_DDOT,TLE_LINE0,TLE_LINE1,TLE_LINE2,SEMIMAJOR_AXIS,PERIOD,APOGEE,PERIGEE,DECAYED
55296.0,STARLINK-5285,PAYLOAD,2024-06-22 03:49:38,14.98324988,0.0003024,69.9991,161.5214,270.787,89.2942,-6.7668e-05,-9e-06,0.0,0 STARLINK-5285,1 55296U 23010AD  24174.15947318 -.00000900  00000-0 -67668-4 0  9997,2 55296  69.9991 161.5214 0003024 270.7870  89.2942 14.98324988 79266,6950.208,96.107,574.175,569.972,0.0
55296.0,STARLINK-5285,PAYLOAD,2024-06-22 08:38:02,14.98322358,0.000299,69.9993,161.0166,270.0485,90.0332,-6.8302e-05,-9.08e-06,0.0,0 STARLINK-5285,1 55296U 23010AD  24174.35975554 -.00000908  00000-0 -68302-4 0  9996,2 55296  69.9993 161.0166 0002990 270.0485  90.0332 14.98322358 80483,6950.217,96.107,574.16,570.003,0.0
55296.0,STARLINK-5285,PAYLOAD,2024-06-23 03:51:39,14.98328252,0.000309,69.9991,158.9966,271.238,88.8425,-5.8088e-05,-7.86e-06,0.0,0 STARLINK-5285,1 55296U 23010AD  24175.16087292 -.00000786  00000-0 -58088-4 0  9993,2 55296  69.9991 158.9966 0003090 271.2380  88.8425 14.98328252 79411,6950.198,96.107,574.211,569.916,0.0
55296.0,STARLINK-5285,PAYLOAD,2024-06-23 08:40:03,14.98330045,0.0003079,69.9992,158.4914,270.6982,89.3824,-5.4278e-05,-7.41e-06,0.0,0 STARLINK-5285,1 55296U 23010AD  24175.36115184 -.00000741  00000-0 -54278-4 0  9995,2 55296  69.9992 158.4914 0003079 270.6982  89.3824 14.98330045 80636,6950.193,96.107,574.198,569.918,0.0
55296.0,STARLINK-5285,PAYLOAD,2024-06-24 05:29:48,14.98329411,0.0003192,69.9989,156.3038,270.9326,89.1467,9.6651e-05,1.06e-05,0.0,0 STARLINK-5285,1 55296U 23010AD  24176.22902817  .00001060  00000-0  96651-4 0  9992,2 55296  69.9989 156.3038 0003192 270.9326  89.1467 14.98329411 79574,6950.195,96.107,574.278,569.841,0.0
55296.0,STARLINK-5285,PAYLOAD,2024-06-24 08:42:03,14.98331763,0.000317,69.999,155.9675,270.7598,89.3198,0.00011968,1.335e-05,0.0,0 STARLINK-5285,1 55296U 23010AD  24176.36254596  .00001335  00000-0  11968-3 0  9993,2 55296  69.9990 155.9675 0003170 270.7598  89.3198 14.98331763 80784,6950.187,96.107,574.256,569.849,0.0
55296.0,STARLINK-5285,PAYLOAD,2024-06-25 05:31:49,14.98330381,0.0003046,69.9993,153.7793,270.559,89.522,3.6286e-05,3.4e-06,0.0,0 STARLINK-5285,1 55296U 23010AD  24177.23042891  .00000340  00000-0  36286-4 0  9999,2 55296  69.9993 153.7793 0003046 270.5590  89.5220 14.98330381 79721,6950.192,96.107,574.174,569.94,0.0
55296.0,STARLINK-5285,PAYLOAD,2024-06-25 08:44:05,14.98331852,0.0003032,69.9994,153.4429,270.7212,89.3599,5.0856e-05,5.14e-06,0.0,0 STARLINK-5285,1 55296U 23010AD  24177.36394742  .00000514  00000-0  50856-4 0  9990,2 55296  69.9994 153.4429 0003032 270.7212  89.3599 14.98331852 80939,6950.187,96.107,574.159,569.945,0.0
55296.0,STARLINK-5285,PAYLOAD,2024-06-26 07:09:57,14.98332542,0.0002897,69.9996,151.0865,271.2895,88.7933,-2.1216e-05,-3.46e-06,0.0,0 STARLINK-5285,1 55296U 23010AD  24178.29858764 -.00000346  00000-0 -21216-4 0  9995,2 55296  69.9996 151.0865 0002897 271.2895  88.7933 14.98332542 79884,6950.185,96.107,574.063,570.037,0.0
55296.0,STARLINK-5285,PAYLOAD,2024-06-27 07:11:58,14.98330458,0.0002856,69.9996,148.5627,261.36,98.7235,-8.7474e-06,-1.97e-06,0.0,0 STARLINK-5285,1 55296U 23010AD  24179.29998691 -.00000197  00000-0 -87474-5 0  9993,2 55296  69.9996 148.5627 0002856 261.3600  98.7235 14.98330458 80039,6950.191,96.107,574.041,570.071,0.0
55296.0,STARLINK-5285,PAYLOAD,2024-06-28 07:13:59,14.98330058,0.0002899,69.9993,146.037,267.4831,92.5996,9.3846e-06,1.9e-07,0.0,0 STARLINK-5285,1 55296U 23010AD  24180.30138759  .00000019  00000-0  93846-5 0  9999,2 55296  69.9993 146.0370 0002899 267.4831  92.5996 14.98330058 80182,6950.193,96.107,574.073,570.043,0.0
55296.0,STARLINK-5285,PAYLOAD,2024-06-28 15:14:40,14.98309718,0.0002936,69.999,145.1951,268.2925,91.7897,0.00036632,4.278e-05,0.0,0 STARLINK-5285,1 55296U 23010AD  24180.63519199  .00004278  00000-0  36632-3 0  9995,2 55296  69.9990 145.1951 0002936 268.2925  91.7897 14.98309718 80235,6950.256,96.108,574.161,570.08,0.0
55296.0,STARLINK-5285,PAYLOAD,2024-06-29 05:39:52,14.98336259,0.0003083,69.9989,143.6802,269.7476,90.333,6.3576e-05,6.66e-06,0.0,0 STARLINK-5285,1 55296U 23010AD  24181.23602121  .00000666  00000-0  63576-4 0  9995,2 55296  69.9989 143.6802 0003083 269.7476  90.3330 14.98336259 80329,6950.174,96.107,574.181,569.896,0.0
55296.0,STARLINK-5285,PAYLOAD,2024-06-29 07:16:00,14.98337342,0.0003035,69.9991,143.5122,270.2931,89.788,8.606e-05,9.34e-06,0.0,0 STARLINK-5285,1 55296U 23010AD  24181.30277972  .00000934  00000-0  86060-4 0  9996,2 55296  69.9991 143.5122 0003035 270.2931  89.7880 14.98337342 81525,6950.17,96.107,574.145,569.926,0.0
55296.0,STARLINK-5285,PAYLOAD,2024-06-29 23:17:21,14.98322699,0.0003067,69.9995,141.8286,274.4985,85.5823,3.4073e-05,3.13e-06,0.0,0 STARLINK-5285,1 55296U 23010AD  24181.97039013  .00000313  00000-0  34073-4 0  9999,2 55296  69.9995 141.8286 0003067 274.4985  85.5823 14.98322699 81622,6950.215,96.107,574.212,569.949,0.0
55296.0,STARLINK-5285,PAYLOAD,2024-06-30 04:05:45,14.98325342,0.0002864,69.9994,141.3241,269.0169,91.0662,-4.8593e-06,-1.51e-06,0.0,0 STARLINK-5285,1 55296U 23010AD  24182.17067019 -.00000151  00000-0 -48593-5 0  9994,2 55296  69.9994 141.3241 0002864 269.0169  91.0662 14.98325342 80467,6950.207,96.107,574.063,570.082,0.0
55296.0,STARLINK-5285,PAYLOAD,2024-06-30 07:18:01,14.98325951,0.0003173,69.9994,140.9878,274.1811,85.8985,3.7204e-05,3.51e-06,0.0,0 STARLINK-5285,1 55296U 23010AD  24182.30418892  .00000351  00000-0  37204-4 0  9994,2 55296  69.9994 140.9878 0003173 274.1811  85.8985 14.98325951 81672,6950.205,96.107,574.276,569.865,0.0
55296.0,STARLINK-5285,PAYLOAD,2024-06-30 21:43:14,14.98332378,0.0002873,69.9996,139.4726,272.6949,87.3881,-2.0759e-05,-3.41e-06,0.0,0 STARLINK-5285,1 55296U 23010AD  24182.90502645 -.00000341  00000-0 -20759-4 0  9998,2 55296  69.9996 139.4726 0002873 272.6949  87.3881 14.98332378 80571,6950.186,96.107,574.047,570.054,0.0
55296.0,STARLINK-5285,PAYLOAD,2024-07-01 13:44:34,14.98330409,0.000288,70.0001,137.7894,273.4698,86.6132,-2.126e-05,-3.47e-06,0.0,0 STARLINK-5285,1 55296U 23010AD  24183.57262589 -.00000347  00000-0 -21260-4 0  9996,2 55296  70.0001 137.7894 0002880 273.4698  86.6132 14.98330409 81863,6950.192,96.107,574.058,570.055,0.0
55296.0,STARLINK-5285,PAYLOAD,2024-07-01 21:45:15,14.98324674,0.0002876,70.0,136.948,273.3122,86.7708,7.5074e-06,-3e-08,0.0,0 STARLINK-5285,1 55296U 23010AD  24183.90642904 -.00000003  00000-0  75074-5 0  9997,2 55296  70.0000 136.9480 0002876 273.3122  86.7708 14.98324674 80721,6950.209,96.107,574.073,570.075,0.0
55296.0,STARLINK-5285,PAYLOAD,2024-07-02 13:46:35,14.98328276,0.0002842,70.0003,135.2651,272.7337,87.3496,1.1484e-05,4.4e-07,0.0,0 STARLINK-5285,1 55296U 23010AD  24184.57402752  .00000044  00000-0  11484-4 0  9994,2 55296  70.0003 135.2651 0002842 272.7337  87.3496 14.98328276 82017,6950.198,96.107,574.038,570.088,0.0
55296.0,STARLINK-5285,PAYLOAD,2024-07-02 21:47:16,14.98329952,0.0002874,70.0005,134.4239,269.9909,90.092,1.3628e-05,7e-07,0.0,0 STARLINK-5285,1 55296U 23010AD  24184.90782607  .00000070  00000-0  13628-4 0  9992,2 55296  70.0005 134.4239 0002874 269.9909  90.0920 14.98329952 80877,6950.193,96.107,574.056,570.061,0.0
55296.0,STARLINK-5285,PAYLOAD,2024-07-03 21:49:17,14.98327437,0.0002804,70.0003,131.8993,267.6011,92.4827,7.7839e-06,0.0,0.0,0 STARLINK-5285,1 55296U 23010AD  24185.90922685  .00000000  00000-0  77839-5 0  9993,2 55296  70.0003 131.8993 0002804 267.6011  92.4827 14.98327437 82213,6950.201,96.107,574.015,570.117,0.0
55296.0,STARLINK-5285,PAYLOAD,2024-07-04 04:13:49,14.983292,0.0002825,70.0002,131.2258,268.2392,91.8443,2.0747e-05,1.55e-06,0.0,0 STARLINK-5285,1 55296U 23010AD  24186.17626564  .00000155  00000-0  20747-4 0  9996,2 55296  70.0002 131.2258 0002825 268.2392  91.8443 14.98329200 81061,6950.195,96.107,574.024,570.097,0.0
55296.0,STARLINK-5285,PAYLOAD,2024-07-04 13:50:37,14.98328112,0.0002856,70.0002,130.216,269.4153,90.6678,-2.2045e-05,-3.56e-06,0.0,0 STARLINK-5285,1 55296U 23010AD  24186.57682744 -.00000356  00000-0 -22045-4 0  9990,2 55296  70.0002 130.2160 0002856 269.4153  90.6678 14.98328112 82311,6950.199,96.107,574.049,570.079,0.0
55296.0,STARLINK-5285,PAYLOAD,2024-07-04 21:51:18,14.98329983,0.0002888,70.0001,129.3745,269.7483,90.3345,1.4876e-05,8.5e-07,0.0,0 STARLINK-5285,1 55296U 23010AD  24186.91062513  .00000085  00000-0  14876-4 0  9994,2 55296  70.0001 129.3745 0002888 269.7483  90.3345 14.98329983 82362,6950.193,96.107,574.065,570.051,0.0
55296.0,STARLINK-5285,PAYLOAD,2024-07-05 04:15:49,14.98334627,0.0002902,69.9999,128.7002,267.6967,92.386,1.6264e-05,1.01e-06,0.0,0 STARLINK-5285,1 55296U 23010AD  24187.17766145  .00000101  00000-0  16264-4 0  9997,2 55296  69.9999 128.7002 0002902 267.6967  92.3860 14.98334627 81213,6950.179,96.107,574.061,570.027,0.0
55296.0,STARLINK-5285,PAYLOAD,2024-07-05 13:52:38,14.98329691,0.0002857,70.0,127.6896,267.541,92.5422,-1.4029e-05,-2.6e-06,0.0,0 STARLINK-5285,1 55296U 23010AD  24187.57822448 -.00000260  00000-0 -14029-4 0  9995,2 55296  70.0000 127.6896 0002857 267.5410  92.5422 14.98329691 82468,6950.194,96.107,574.045,570.073,0.0
55296.0,STARLINK-5285,PAYLOAD,2024-07-05 20:17:10,14.98328258,0.0002849,69.9999,127.0164,267.3048,92.7785,-1.966e-05,-3.28e-06,0.0,0 STARLINK-5285,1 55296U 23010AD  24187.84526573 -.00000328  00000-0 -19660-4 0  9996,2 55296  69.9999 127.0164 0002849 267.3048  92.7785 14.98328258 81315,6950.198,96.107,574.043,570.083,0.0
55296.0,STARLINK-5285,PAYLOAD,2024-07-05 21:53:19,14.98326903,0.0002863,69.9999,126.8482,267.6092,92.4739,-3.4602e-05,-5.06e-06,0.0,0 STARLINK-5285,1 55296U 23010AD  24187.91202703 -.00000506  00000-0 -34602-4 0  9991,2 55296  69.9999 126.8482 0002863 267.6092  92.4739 14.98326903 82517,6950.202,96.107,574.057,570.078,0.0
